OBJECT_NAME,OBJECT_ID,EPOCH,MEAN_MOTION,ECCENTRICITY,INCLINATION,RA_OF_ASC_NODE,ARG_OF_PERICENTER,MEAN_ANOMALY,EPHEMERIS_TYPE,CLASSIFICATION_TYPE,NORAD_CAT_ID,ELEMENT_SET_NO,REV_AT_EPOCH,BSTAR,MEAN_MOTION_DOT,MEAN_MOTION_DDOT
TIANMU-1 20,2023-208B,2026-06-26T06:26:12.987168,15.32892508,.00055794,97.4450,294.2597,294.3720,65.6939,0,U,58661,999,13881,.2849714E-3,.8979E-4,0
TIANMU-1 21,2023-208C,2026-06-26T07:23:31.046208,15.35230323,.00056566,97.4509,297.0199,283.6336,76.4277,0,U,58662,999,13896,.29820475E-3,.10125E-3,0
TIANMU-1 22,2023-208D,2026-06-26T06:54:13.958784,15.31177584,.00024397,97.4504,293.5628,324.0551,36.0526,0,U,58663,999,13872,.28442038E-3,.8489E-4,0
TIANMU-1 15,2024-004A,2026-06-26T06:32:46.108032,15.26798072,.00057365,97.4666,3.4650,314.6662,45.4109,0,U,58700,999,13716,.2336132E-3,.6081E-4,0
TIANMU-1 16,2024-004B,2026-06-26T06:19:10.446240,15.26834996,.00049411,97.4614,2.6828,334.1545,25.9446,0,U,58701,999,13716,.24062958E-3,.6272E-4,0
TIANMU-1 17,2024-004C,2026-06-26T07:32:36.582720,15.26834600,.00046115,97.4641,3.2221,341.2756,18.8312,0,U,58702,999,13716,.23717937E-3,.6181E-4,0
TIANMU-1 18,2024-004D,2026-06-26T06:56:43.834272,15.26884340,.00033774,97.4659,3.4579,327.0467,33.0560,0,U,58703,999,13716,.21220647E-3,.5529E-4,0
INSAT-3DS,2024-033A,2026-06-26T02:40:43.028832,1.00270750,.00014489,0.0597,101.6372,343.2032,311.6553,0,U,58990,999,4715,0,-.145E-5,0
METEOR-M2 4,2024-039A,2026-06-26T06:10:52.637952,14.22430451,.00077795,98.7013,136.4417,136.5657,223.6135,0,U,59051,999,12055,.25870352E-4,.14E-6,0
GOES 19,2024-119A,2026-06-26T05:21:07.874784,1.00271440,.00005159,0.0453,166.5517,335.3386,137.5498,0,U,60133,999,705,0,-.237E-5,0
MTG-S1,2025-143A,2026-06-24T17:46:37.650720,1.00400949,.00005853,0.5970,340.6178,288.6722,269.7793,0,U,64723,999,349,0,.23E-6,0
METOP-SGA1,2025-172A,2026-06-26T03:50:25.329696,14.19816449,.00081395,98.6642,236.6971,27.5405,332.6201,0,U,65159,999,4506,.39427161E-4,.4E-6,0
FENGYUN 3H,2025-219A,2026-06-26T06:31:51.771936,14.19921917,.00015203,98.6769,117.8647,70.9004,289.2337,0,U,65815,999,3867,.37692238E-4,.37E-6,0
