TIANMU-1 20             
1 58661U 23208B   26177.26820587  .00008979  00000+0  28497-3 0  9997
2 58661  97.4450 294.2597 0005579 294.3720  65.6939 15.32892508138810
TIANMU-1 21             
1 58662U 23208C   26177.30799822  .00010125  00000+0  29820-3 0  9997
2 58662  97.4509 297.0199 0005656 283.6336  76.4277 15.35230323138960
TIANMU-1 22             
1 58663U 23208D   26177.28766156  .00008489  00000+0  28442-3 0  9998
2 58663  97.4504 293.5628 0002439 324.0551  36.0526 15.31177584138727
TIANMU-1 15             
1 58700U 24004A   26177.27275588  .00006081  00000+0  23361-3 0  9999
2 58700  97.4666   3.4650 0005736 314.6662  45.4109 15.26798072137165
TIANMU-1 16             
1 58701U 24004B   26177.26331535  .00006272  00000+0  24063-3 0  9996
2 58701  97.4614   2.6828 0004941 334.1545  25.9446 15.26834996137164
TIANMU-1 17             
1 58702U 24004C   26177.31431230  .00006181  00000+0  23718-3 0  9991
2 58702  97.4641   3.2221 0004611 341.2756  18.8312 15.26834600137161
TIANMU-1 18             
1 58703U 24004D   26177.28939623  .00005529  00000+0  21221-3 0  9999
2 58703  97.4659   3.4579 0003377 327.0467  33.0560 15.26884340137168
INSAT-3DS               
1 58990U 24033A   26177.11160913 -.00000145  00000+0  00000+0 0  9997
2 58990   0.0597 101.6372 0001448 343.2032 311.6553  1.00270750 47151
METEOR-M2 4             
1 59051U 24039A   26177.25755368  .00000014  00000+0  25870-4 0  9992
2 59051  98.7013 136.4417 0007779 136.5657 223.6135 14.22430451120550
GOES 19                 
1 60133U 24119A   26177.22300781 -.00000237  00000+0  00000+0 0  9997
2 60133   0.0453 166.5517 0000515 335.3386 137.5498  1.00271440  7058
MTG-S1                  
1 64723U 25143A   26175.74071355  .00000023  00000+0  00000+0 0  9993
2 64723   0.5970 340.6178 0000585 288.6722 269.7793  1.00400949  3493
METOP-SGA1              
1 65159U 25172A   26177.16001539  .00000040  00000+0  39427-4 0  9993
2 65159  98.6642 236.6971 0008139  27.5405 332.6201 14.19816449 45060
FENGYUN 3H              
1 65815U 25219A   26177.27212699  .00000037  00000+0  37692-4 0  9995
2 65815  98.6769 117.8647 0001520  70.9004 289.2337 14.19921917 38676
